[
    {
        "Altitude(m)": 604983.052888488,
        "Argument of Periapsis(deg)": 0.0,
        "Eccentricity": 0.0,
        "Inclination(deg)": 60.0,
        "Latitude(deg)": -0.09258051055532186,
        "Longitude(deg)": 40.0839165230254,
        "Mean Anomaly(deg)": -179.99999999999994,
        "RAAN(deg)": 320.0,
        "Satellite Name": "Test1 1419",
        "Satellite Number": 1419,
        "Semi-Major Axis(m)": 6980739.136638005,
        "Time(s)": 0
    },
    {
        "Altitude(m)": 605055.3318748438,
        "Argument of Periapsis(deg)": 0.00010418945913296404,
        "Eccentricity": 0.0,
        "Inclination(deg)": 60.0,
        "Latitude(deg)": -0.6329900277615859,
        "Longitude(deg)": 40.35204214328951,
        "Mean Anomaly(deg)": -179.37989385453818,
        "RAAN(deg)": 319.9995799508602,
        "Satellite Name": "Test1 1419",
        "Satellite Number": 1419,
        "Semi-Major Axis(m)": 6980739.136638005,
        "Time(s)": 10
    }
]